ONEWEB-0258             
1 48976U 21060K   26133.22173180 -.00000007  00000+0 -53085-4 0  9995
2 48976  87.9102 235.7249 0001896 101.5559 258.5785 13.16596249234998
ONEWEB-0259             
1 48977U 21060L   26132.98740634 -.00000028  00000+0 -10725-3 0  9998
2 48977  87.9100 235.7714 0001784 100.8846 259.2486 13.16592876234999
ONEWEB-0260             
1 48978U 21060M   26133.20669686  .00000050  00000+0  97055-4 0  9997
2 48978  87.9092 235.7312 0002397  99.0826 261.0576 13.16595725235002
ONEWEB-0261             
1 48979U 21060N   26133.25261522  .00000009  00000+0 -11369-4 0  9999
2 48979  87.9096 235.7210 0001968  91.1696 268.9661 13.16593656235063
ONEWEB-0262             
1 48980U 21060P   26133.00483822 -.00000039  00000+0 -13542-3 0  9991
2 48980  87.9102 235.7551 0001677 101.2776 258.8544 13.16595357234999
ONEWEB-0263             
1 48981U 21060Q   26133.03648581  .00000113  00000+0  26293-3 0  9998
2 48981  87.9102 235.7604 0001816  91.7147 268.4192 13.16592803234965
ONEWEB-0264             
1 48982U 21060R   26133.22568932 -.00000192  00000+0 -53705-3 0  9998
2 48982  87.9102 235.7262 0002079  95.6476 264.4892 13.16593757234991
ONEWEB-0266             
1 48984U 21060T   26133.24706891  .00000006  00000+0 -17232-4 0  9999
2 48984  87.9098 235.7120 0001946 103.8562 256.2786 13.16596016234981
ONEWEB-0267             
1 48985U 21060U   26133.03015084 -.00000169  00000+0 -47655-3 0  9996
2 48985  87.9103 235.7514 0001933  95.0054 265.1298 13.16594017234964
ONEWEB-0268             
1 48986U 21060V   26132.99850756 -.00000086  00000+0 -25887-3 0  9995
2 48986  87.9103 235.7674 0002125 100.6894 259.4477 13.16594162235227
ONEWEB-0269             
1 48987U 21060W   26132.97950741  .00000000  00000+0 -33954-4 0  9999
2 48987  87.9090 235.7778 0002163 104.3972 255.7399 13.16595737234992
ONEWEB-0270             
1 48988U 21060X   26132.84492912 -.00000123  00000+0 -35434-3 0  9998
2 48988  87.9103 235.7996 0001661  93.0853 267.0468 13.16595374235018
ONEWEB-0271             
1 48989U 21060Y   26133.21224805  .00000120  00000+0  28061-3 0  9998
2 48989  87.9101 235.7175 0001847  93.9941 266.1401 13.16595694235066
ONEWEB-0272             
1 48990U 21060Z   26133.00642131 -.00000042  00000+0 -14342-3 0  9995
2 48990  87.9100 235.7695 0002203  95.3782 264.7600 13.16594466234981
ONEWEB-0273             
1 48991U 21060AA  26133.25658119  .00000098  00000+0  22220-3 0  9999
2 48991  87.9104 235.7186 0001841  97.6964 262.4376 13.16595155234997
ONEWEB-0274             
1 48992U 21060AB  26133.20590680  .00000086  00000+0  19167-3 0  9996
2 48992  87.9093 235.7350 0002281  97.2976 262.8415 13.16595572235022
