[{"OBJECT_NAME":"ONEWEB-0258","OBJECT_ID":"2021-060K","EPOCH":"2026-05-13T05:19:17.627520","MEAN_MOTION":13.16596249,"ECCENTRICITY":0.0001896,"INCLINATION":87.9102,"RA_OF_ASC_NODE":235.7249,"ARG_OF_PERICENTER":101.5559,"MEAN_ANOMALY":258.5785,"EPHEMERIS_TYPE":0,"CLASSIFICATION_TYPE":"U","NORAD_CAT_ID":48976,"ELEMENT_SET_NO":999,"REV_AT_EPOCH":23499,"BSTAR":-5.3085000000000004e-05,"MEAN_MOTION_DOT":-7e-08,"MEAN_MOTION_DDOT":0.0},{"OBJECT_NAME":"ONEWEB-0259","OBJECT_ID":"2021-060L","EPOCH":"2026-05-12T23:41:51.907776","MEAN_MOTION":13.16592876,"ECCENTRICITY":0.0001784,"INCLINATION":87.91,"RA_OF_ASC_NODE":235.7714,"ARG_OF_PERICENTER":100.8846,"MEAN_ANOMALY":259.2486,"EPHEMERIS_TYPE":0,"CLASSIFICATION_TYPE":"U","NORAD_CAT_ID":48977,"ELEMENT_SET_NO":999,"REV_AT_EPOCH":23499,"BSTAR":-0.00010725,"MEAN_MOTION_DOT":-2.8e-07,"MEAN_MOTION_DDOT":0.0},{"OBJECT_NAME":"ONEWEB-0260","OBJECT_ID":"2021-060M","EPOCH":"2026-05-13T04:57:38.608704","MEAN_MOTION":13.16595725,"ECCENTRICITY":0.0002397,"INCLINATION":87.9092,"RA_OF_ASC_NODE":235.7312,"ARG_OF_PERICENTER":99.0826,"MEAN_ANOMALY":261.0576,"EPHEMERIS_TYPE":0,"CLASSIFICATION_TYPE":"U","NORAD_CAT_ID":48978,"ELEMENT_SET_NO":999,"REV_AT_EPOCH":23500,"BSTAR":9.705500000000001e-05,"MEAN_MOTION_DOT":5e-07,"MEAN_MOTION_DDOT":0.0},{"OBJECT_NAME":"ONEWEB-0261","OBJECT_ID":"2021-060N","EPOCH":"2026-05-13T06:03:45.955008","MEAN_MOTION":13.16593656,"ECCENTRICITY":0.0001968,"INCLINATION":87.9096,"RA_OF_ASC_NODE":235.721,"ARG_OF_PERICENTER":91.1696,"MEAN_ANOMALY":268.9661,"EPHEMERIS_TYPE":0,"CLASSIFICATION_TYPE":"U","NORAD_CAT_ID":48979,"ELEMENT_SET_NO":999,"REV_AT_EPOCH":23506,"BSTAR":-1.1369e-05,"MEAN_MOTION_DOT":9e-08,"MEAN_MOTION_DDOT":0.0},{"OBJECT_NAME":"ONEWEB-0262","OBJECT_ID":"2021-060P","EPOCH":"2026-05-13T00:06:58.022208","MEAN_MOTION":13.16595357,"ECCENTRICITY":0.0001677,"INCLINATION":87.9102,"RA_OF_ASC_NODE":235.7551,"ARG_OF_PERICENTER":101.2776,"MEAN_ANOMALY":258.8544,"EPHEMERIS_TYPE":0,"CLASSIFICATION_TYPE":"U","NORAD_CAT_ID":48980,"ELEMENT_SET_NO":999,"REV_AT_EPOCH":23499,"BSTAR":-0.00013542000000000003,"MEAN_MOTION_DOT":-3.9e-07,"MEAN_MOTION_DDOT":0.0},{"OBJECT_NAME":"ONEWEB-0263","OBJECT_ID":"2021-060Q","EPOCH":"2026-05-13T00:52:32.373984","MEAN_MOTION":13.16592803,"ECCENTRICITY":0.0001816,"INCLINATION":87.9102,"RA_OF_ASC_NODE":235.7604,"ARG_OF_PERICENTER":91.7147,"MEAN_ANOMALY":268.4192,"EPHEMERIS_TYPE":0,"CLASSIFICATION_TYPE":"U","NORAD_CAT_ID":48981,"ELEMENT_SET_NO":999,"REV_AT_EPOCH":23496,"BSTAR":0.00026293,"MEAN_MOTION_DOT":1.13e-06,"MEAN_MOTION_DDOT":0.0},{"OBJECT_NAME":"ONEWEB-0264","OBJECT_ID":"2021-060R","EPOCH":"2026-05-13T05:24:59.557248","MEAN_MOTION":13.16593757,"ECCENTRICITY":0.0002079,"INCLINATION":87.9102,"RA_OF_ASC_NODE":235.7262,"ARG_OF_PERICENTER":95.6476,"MEAN_ANOMALY":264.4892,"EPHEMERIS_TYPE":0,"CLASSIFICATION_TYPE":"U","NORAD_CAT_ID":48982,"ELEMENT_SET_NO":999,"REV_AT_EPOCH":23499,"BSTAR":-0.0005370500000000001,"MEAN_MOTION_DOT":-1.92e-06,"MEAN_MOTION_DDOT":0.0},{"OBJECT_NAME":"ONEWEB-0266","OBJECT_ID":"2021-060T","EPOCH":"2026-05-13T05:55:46.753824","MEAN_MOTION":13.16596016,"ECCENTRICITY":0.0001946,"INCLINATION":87.9098,"RA_OF_ASC_NODE":235.712,"ARG_OF_PERICENTER":103.8562,"MEAN_ANOMALY":256.2786,"EPHEMERIS_TYPE":0,"CLASSIFICATION_TYPE":"U","NORAD_CAT_ID":48984,"ELEMENT_SET_NO":999,"REV_AT_EPOCH":23498,"BSTAR":-1.7232e-05,"MEAN_MOTION_DOT":6e-08,"MEAN_MOTION_DDOT":0.0},{"OBJECT_NAME":"ONEWEB-0267","OBJECT_ID":"2021-060U","EPOCH":"2026-05-13T00:43:25.032576","MEAN_MOTION":13.16594017,"ECCENTRICITY":0.0001933,"INCLINATION":87.9103,"RA_OF_ASC_NODE":235.7514,"ARG_OF_PERICENTER":95.0054,"MEAN_ANOMALY":265.1298,"EPHEMERIS_TYPE":0,"CLASSIFICATION_TYPE":"U","NORAD_CAT_ID":48985,"ELEMENT_SET_NO":999,"REV_AT_EPOCH":23496,"BSTAR":-0.00047655,"MEAN_MOTION_DOT":-1.69e-06,"MEAN_MOTION_DDOT":0.0},{"OBJECT_NAME":"ONEWEB-0268","OBJECT_ID":"2021-060V","EPOCH":"2026-05-12T23:57:51.053184","MEAN_MOTION":13.16594162,"ECCENTRICITY":0.0002125,"INCLINATION":87.9103,"RA_OF_ASC_NODE":235.7674,"ARG_OF_PERICENTER":100.6894,"MEAN_ANOMALY":259.4477,"EPHEMERIS_TYPE":0,"CLASSIFICATION_TYPE":"U","NORAD_CAT_ID":48986,"ELEMENT_SET_NO":999,"REV_AT_EPOCH":23522,"BSTAR":-0.00025887,"MEAN_MOTION_DOT":-8.6e-07,"MEAN_MOTION_DDOT":0.0},{"OBJECT_NAME":"ONEWEB-0269","OBJECT_ID":"2021-060W","EPOCH":"2026-05-12T23:30:29.440224","MEAN_MOTION":13.16595737,"ECCENTRICITY":0.0002163,"INCLINATION":87.909,"RA_OF_ASC_NODE":235.7778,"ARG_OF_PERICENTER":104.3972,"MEAN_ANOMALY":255.7399,"EPHEMERIS_TYPE":0,"CLASSIFICATION_TYPE":"U","NORAD_CAT_ID":48987,"ELEMENT_SET_NO":999,"REV_AT_EPOCH":23499,"BSTAR":-3.3954e-05,"MEAN_MOTION_DOT":0.0,"MEAN_MOTION_DDOT":0.0},{"OBJECT_NAME":"ONEWEB-0270","OBJECT_ID":"2021-060X","EPOCH":"2026-05-12T20:16:41.875968","MEAN_MOTION":13.16595374,"ECCENTRICITY":0.0001661,"INCLINATION":87.9103,"RA_OF_ASC_NODE":235.7996,"ARG_OF_PERICENTER":93.0853,"MEAN_ANOMALY":267.0468,"EPHEMERIS_TYPE":0,"CLASSIFICATION_TYPE":"U","NORAD_CAT_ID":48988,"ELEMENT_SET_NO":999,"REV_AT_EPOCH":23501,"BSTAR":-0.00035433999999999997,"MEAN_MOTION_DOT":-1.23e-06,"MEAN_MOTION_DDOT":0.0},{"OBJECT_NAME":"ONEWEB-0271","OBJECT_ID":"2021-060Y","EPOCH":"2026-05-13T05:05:38.231520","MEAN_MOTION":13.16595694,"ECCENTRICITY":0.0001847,"INCLINATION":87.9101,"RA_OF_ASC_NODE":235.7175,"ARG_OF_PERICENTER":93.9941,"MEAN_ANOMALY":266.1401,"EPHEMERIS_TYPE":0,"CLASSIFICATION_TYPE":"U","NORAD_CAT_ID":48989,"ELEMENT_SET_NO":999,"REV_AT_EPOCH":23506,"BSTAR":0.00028061000000000004,"MEAN_MOTION_DOT":1.2e-06,"MEAN_MOTION_DDOT":0.0},{"OBJECT_NAME":"ONEWEB-0272","OBJECT_ID":"2021-060Z","EPOCH":"2026-05-13T00:09:14.801184","MEAN_MOTION":13.16594466,"ECCENTRICITY":0.0002203,"INCLINATION":87.91,"RA_OF_ASC_NODE":235.7695,"ARG_OF_PERICENTER":95.3782,"MEAN_ANOMALY":264.76,"EPHEMERIS_TYPE":0,"CLASSIFICATION_TYPE":"U","NORAD_CAT_ID":48990,"ELEMENT_SET_NO":999,"REV_AT_EPOCH":23498,"BSTAR":-0.00014342,"MEAN_MOTION_DOT":-4.2e-07,"MEAN_MOTION_DDOT":0.0},{"OBJECT_NAME":"ONEWEB-0273","OBJECT_ID":"2021-060AA","EPOCH":"2026-05-13T06:09:28.614816","MEAN_MOTION":13.16595155,"ECCENTRICITY":0.0001841,"INCLINATION":87.9104,"RA_OF_ASC_NODE":235.7186,"ARG_OF_PERICENTER":97.6964,"MEAN_ANOMALY":262.4376,"EPHEMERIS_TYPE":0,"CLASSIFICATION_TYPE":"U","NORAD_CAT_ID":48991,"ELEMENT_SET_NO":999,"REV_AT_EPOCH":23499,"BSTAR":0.0002222,"MEAN_MOTION_DOT":9.8e-07,"MEAN_MOTION_DDOT":0.0},{"OBJECT_NAME":"ONEWEB-0274","OBJECT_ID":"2021-060AB","EPOCH":"2026-05-13T04:56:30.347520","MEAN_MOTION":13.16595572,"ECCENTRICITY":0.0002281,"INCLINATION":87.9093,"RA_OF_ASC_NODE":235.735,"ARG_OF_PERICENTER":97.2976,"MEAN_ANOMALY":262.8415,"EPHEMERIS_TYPE":0,"CLASSIFICATION_TYPE":"U","NORAD_CAT_ID":48992,"ELEMENT_SET_NO":999,"REV_AT_EPOCH":23502,"BSTAR":0.00019167,"MEAN_MOTION_DOT":8.6e-07,"MEAN_MOTION_DDOT":0.0}]